{"type": "FeatureCollection", "features": [ {"type": "Feature", "properties": {"norad_id": 66927, "name": "STARLINK-35943", "group": "last-30-days", "lat": -36.449449864055254, "lon": -127.3115456432171, "alt_km": 330.9492341847572, "timestamp": "2025-12-18T23:35:47.783162+00:00", "meta": {"OBJECT_NAME": "STARLINK-35943", "OBJECT_ID": "2025-286C", "EPOCH": "2025-12-18T14:00:03.000384", "MEAN_MOTION": 15.82649653, "ECCENTRICITY": 0.00010675, "INCLINATION": 53.1564, "RA_OF_ASC_NODE": 21.0668, "ARG_OF_PERICENTER": 63.7388, "MEAN_ANOMALY": 45.6025, "EPHEMERIS_TYPE": 0, "CLASSIFICATION_TYPE": "U", "NORAD_CAT_ID": 66927, "ELEMENT_SET_NO": 999, "REV_AT_EPOCH": 293, "BSTAR": -0.0067084095, "MEAN_MOTION_DOT": -0.01270689, "MEAN_MOTION_DDOT": 0}, "tle": {"line1": "1 66927U 25286C   25352.58336806 -.01270689  00000+0 -67084-2 0  9990", "line2": "2 66927  53.1564  21.0668 0001067  63.7388  45.6025 15.82649653  2933"}}, "geometry": {"type": "Point", "coordinates": [-127.3115456432171, -36.449449864055254]}}, {"type": "Feature", "properties": {"norad_id": 66928, "name": "STARLINK-35944", "group": "last-30-days", "lat": -33.569714364662225, "lon": -131.0902363805777, "alt_km": 330.7463879263605, "timestamp": "2025-12-18T23:35:47.783173+00:00", "meta": {"OBJECT_NAME": "STARLINK-35944", "OBJECT_ID": "2025-286D", "EPOCH": "2025-12-18T14:00:03.000384", "MEAN_MOTION": 15.82641162, "ECCENTRICITY": 0.00010108, "INCLINATION": 53.1563, "RA_OF_ASC_NODE": 21.0753, "ARG_OF_PERICENTER": 60.8028, "MEAN_ANOMALY": 44.3066, "EPHEMERIS_TYPE": 0, "CLASSIFICATION_TYPE": "U", "NORAD_CAT_ID": 66928, "ELEMENT_SET_NO": 999, "REV_AT_EPOCH": 293, "BSTAR": -0.0066550597, "MEAN_MOTION_DOT": -0.01261284, "MEAN_MOTION_DDOT": 0}, "tle": {"line1": "1 66928U 25286D   25352.58336806 -.01261284  00000+0 -66551-2 0  9990", "line2": "2 66928  53.1563  21.0753 0001010  60.8028  44.3066 15.82641162  2933"}}, "geometry": {"type": "Point", "coordinates": [-131.0902363805777, -33.569714364662225]}}, {"type": "Feature", "properties": {"norad_id": 66929, "name": "STARLINK-36169", "group": "last-30-days", "lat": -37.91432686562101, "lon": -125.21153120591028, "alt_km": 331.0885630669045, "timestamp": "2025-12-18T23:35:47.783184+00:00", "meta": {"OBJECT_NAME": "STARLINK-36169", "OBJECT_ID": "2025-286E", "EPOCH": "2025-12-18T14:00:03.000384", "MEAN_MOTION": 15.8264626, "ECCENTRICITY": 0.00010676, "INCLINATION": 53.1563, "RA_OF_ASC_NODE": 21.0619, "ARG_OF_PERICENTER": 52.0484, "MEAN_ANOMALY": 59.5331, "EPHEMERIS_TYPE": 0, "CLASSIFICATION_TYPE": "U", "NORAD_CAT_ID": 66929, "ELEMENT_SET_NO": 999, "REV_AT_EPOCH": 293, "BSTAR": -0.0067345551, "MEAN_MOTION_DOT": -0.01274874, "MEAN_MOTION_DDOT": 0}, "tle": {"line1": "1 66929U 25286E   25352.58336806 -.01274874  00000+0 -67346-2 0  9993", "line2": "2 66929  53.1563  21.0619 0001067  52.0484  59.5331 15.82646260  2933"}}, "geometry": {"type": "Point", "coordinates": [-125.21153120591028, -37.91432686562101]}}, {"type": "Feature", "properties": {"norad_id": 66930, "name": "STARLINK-36206", "group": "last-30-days", "lat": -39.237783202320756, "lon": -123.18896544682697, "alt_km": 331.0692515298697, "timestamp": "2025-12-18T23:35:47.783194+00:00", "meta": {"OBJECT_NAME": "STARLINK-36206", "OBJECT_ID": "2025-286F", "EPOCH": "2025-12-18T14:00:03.000384", "MEAN_MOTION": 15.82656891, "ECCENTRICITY": 9.205e-05, "INCLINATION": 53.1561, "RA_OF_ASC_NODE": 21.0574, "ARG_OF_PERICENTER": 71.5911, "MEAN_ANOMALY": 42.0511, "EPHEMERIS_TYPE": 0, "CLASSIFICATION_TYPE": "U", "NORAD_CAT_ID": 66930, "ELEMENT_SET_NO": 999, "REV_AT_EPOCH": 293, "BSTAR": -0.0067996046, "MEAN_MOTION_DOT": -0.01286202, "MEAN_MOTION_DDOT": 0}, "tle": {"line1": "1 66930U 25286F   25352.58336806 -.01286202  00000+0 -67996-2 0  9994", "line2": "2 66930  53.1561  21.0574 0000920  71.5911  42.0511 15.82656891  2939"}}, "geometry": {"type": "Point", "coordinates": [-123.18896544682697, -39.237783202320756]}}, {"type": "Feature", "properties": {"norad_id": 66931, "name": "STARLINK-36130", "group": "last-30-days", "lat": -40.65207630237727, "lon": -120.8740915599633, "alt_km": 331.2008369912046, "timestamp": "2025-12-18T23:35:47.783204+00:00", "meta": {"OBJECT_NAME": "STARLINK-36130", "OBJECT_ID": "2025-286G", "EPOCH": "2025-12-18T14:00:03.000384", "MEAN_MOTION": 15.82648858, "ECCENTRICITY": 9.716e-05, "INCLINATION": 53.1562, "RA_OF_ASC_NODE": 21.0528, "ARG_OF_PERICENTER": 66.9503, "MEAN_ANOMALY": 48.9816, "EPHEMERIS_TYPE": 0, "CLASSIFICATION_TYPE": "U", "NORAD_CAT_ID": 66931, "ELEMENT_SET_NO": 999, "REV_AT_EPOCH": 293, "BSTAR": -0.00681614, "MEAN_MOTION_DOT": -0.01288551, "MEAN_MOTION_DDOT": 0}, "tle": {"line1": "1 66931U 25286G   25352.58336806 -.01288551  00000+0 -68161-2 0  9999", "line2": "2 66931  53.1562  21.0528 0000971  66.9503  48.9816 15.82648858  2938"}}, "geometry": {"type": "Point", "coordinates": [-120.8740915599633, -40.65207630237727]}}, {"type": "Feature", "properties": {"norad_id": 66932, "name": "STARLINK-36177", "group": "last-30-days", "lat": -41.99414349517465, "lon": -118.50408232120118, "alt_km": 331.3312470819692, "timestamp": "2025-12-18T23:35:47.783214+00:00", "meta": {"OBJECT_NAME": "STARLINK-36177", "OBJECT_ID": "2025-286H", "EPOCH": "2025-12-18T14:00:03.000384", "MEAN_MOTION": 15.82651921, "ECCENTRICITY": 0.00010919, "INCLINATION": 53.156, "RA_OF_ASC_NODE": 21.048, "ARG_OF_PERICENTER": 61.7267, "MEAN_ANOMALY": 56.4418, "EPHEMERIS_TYPE": 0, "CLASSIFICATION_TYPE": "U", "NORAD_CAT_ID": 66932, "ELEMENT_SET_NO": 999, "REV_AT_EPOCH": 293, "BSTAR": -0.0068799835, "MEAN_MOTION_DOT": -0.012994, "MEAN_MOTION_DDOT": 0}, "tle": {"line1": "1 66932U 25286H   25352.58336806 -.01299400  00000+0 -68800-2 0  9995", "line2": "2 66932  53.1560  21.0480 0001091  61.7267  56.4418 15.82651921  2935"}}, "geometry": {"type": "Point", "coordinates": [-118.50408232120118, -41.99414349517465]}}, {"type": "Feature", "properties": {"norad_id": 66933, "name": "STARLINK-36157", "group": "last-30-days", "lat": -43.268232914902896, "lon": -116.06790628022564, "alt_km": 331.34720984700743, "timestamp": "2025-12-18T23:35:47.783226+00:00", "meta": {"OBJECT_NAME": "STARLINK-36157", "OBJECT_ID": "2025-286J", "EPOCH": "2025-12-18T14:00:03.000384", "MEAN_MOTION": 15.8264896, "ECCENTRICITY": 9.687e-05, "INCLINATION": 53.1561, "RA_OF_ASC_NODE": 21.0435, "ARG_OF_PERICENTER": 69.8954, "MEAN_ANOMALY": 50.4882, "EPHEMERIS_TYPE": 0, "CLASSIFICATION_TYPE": "U", "NORAD_CAT_ID": 66933, "ELEMENT_SET_NO": 999, "REV_AT_EPOCH": 293, "BSTAR": -0.0069099593, "MEAN_MOTION_DOT": -0.01304136, "MEAN_MOTION_DDOT": 0}, "tle": {"line1": "1 66933U 25286J   25352.58336806 -.01304136  00000+0 -69100-2 0  9993", "line2": "2 66933  53.1561  21.0435 0000968  69.8954  50.4882 15.82648960  2939"}}, "geometry": {"type": "Point", "coordinates": [-116.06790628022564, -43.268232914902896]}}, {"type": "Feature", "properties": {"norad_id": 66934, "name": "STARLINK-36153", "group": "last-30-days", "lat": -44.49529640918264, "lon": -113.5144586557186, "alt_km": 331.35841432288635, "timestamp": "2025-12-18T23:35:47.783237+00:00", "meta": {"OBJECT_NAME": "STARLINK-36153", "OBJECT_ID": "2025-286K", "EPOCH": "2025-12-18T14:00:03.000384", "MEAN_MOTION": 15.82646295, "ECCENTRICITY": 8.937e-05, "INCLINATION": 53.156, "RA_OF_ASC_NODE": 21.0384, "ARG_OF_PERICENTER": 66.6874, "MEAN_ANOMALY": 55.9228, "EPHEMERIS_TYPE": 0, "CLASSIFICATION_TYPE": "U", "NORAD_CAT_ID": 66934, "ELEMENT_SET_NO": 999, "REV_AT_EPOCH": 293, "BSTAR": -0.0069371696, "MEAN_MOTION_DOT": -0.01308453, "MEAN_MOTION_DDOT": 0}, "tle": {"line1": "1 66934U 25286K   25352.58336806 -.01308453  00000+0 -69372-2 0  9991", "line2": "2 66934  53.1560  21.0384 0000893  66.6874  55.9228 15.82646295  2938"}}, "geometry": {"type": "Point", "coordinates": [-113.5144586557186, -44.49529640918264]}}, {"type": "Feature", "properties": {"norad_id": 66935, "name": "STARLINK-36127", "group": "last-30-days", "lat": -45.765499100179404, "lon": -110.60674262424631, "alt_km": 331.54995809686443, "timestamp": "2025-12-18T23:35:47.783249+00:00", "meta": {"OBJECT_NAME": "STARLINK-36127", "OBJECT_ID": "2025-286L", "EPOCH": "2025-12-18T14:00:03.000384", "MEAN_MOTION": 15.82631655, "ECCENTRICITY": 0.00010589, "INCLINATION": 53.156, "RA_OF_ASC_NODE": 21.0336, "ARG_OF_PERICENTER": 70.1894, "MEAN_ANOMALY": 54.8628, "EPHEMERIS_TYPE": 0, "CLASSIFICATION_TYPE": "U", "NORAD_CAT_ID": 66935, "ELEMENT_SET_NO": 999, "REV_AT_EPOCH": 293, "BSTAR": -0.0069832315, "MEAN_MOTION_DOT": -0.01315373, "MEAN_MOTION_DDOT": 0}, "tle": {"line1": "1 66935U 25286L   25352.58336806 -.01315373  00000+0 -69832-2 0  9992", "line2": "2 66935  53.1560  21.0336 0001058  70.1894  54.8628 15.82631655  2938"}}, "geometry": {"type": "Point", "coordinates": [-110.60674262424631, -45.765499100179404]}}, {"type": "Feature", "properties": {"norad_id": 66936, "name": "STARLINK-36160", "group": "last-30-days", "lat": -46.81323608460623, "lon": -107.95591508563375, "alt_km": 331.5853122360213, "timestamp": "2025-12-18T23:35:47.783259+00:00", "meta": {"OBJECT_NAME": "STARLINK-36160", "OBJECT_ID": "2025-286M", "EPOCH": "2025-12-18T14:00:03.000384", "MEAN_MOTION": 15.82641401, "ECCENTRICITY": 0.00010258, "INCLINATION": 53.156, "RA_OF_ASC_NODE": 21.0295, "ARG_OF_PERICENTER": 61.754, "MEAN_ANOMALY": 65.4116, "EPHEMERIS_TYPE": 0, "CLASSIFICATION_TYPE": "U", "NORAD_CAT_ID": 66936, "ELEMENT_SET_NO": 999, "REV_AT_EPOCH": 293, "BSTAR": -0.0070578378, "MEAN_MOTION_DOT": -0.01328198, "MEAN_MOTION_DDOT": 0}, "tle": {"line1": "1 66936U 25286M   25352.58336806 -.01328198  00000+0 -70578-2 0  9991", "line2": "2 66936  53.1560  21.0295 0001025  61.7540  65.4116 15.82641401  2931"}}, "geometry": {"type": "Point", "coordinates": [-107.95591508563375, -46.81323608460623]}}]}